{
  "norad_id": 68713,
  "name": "STARLINK-37305",
  "history": [
    {
      "epoch": "2026-04-23T17:00:02.431008Z",
      "apogee_km": 316.8025604152008,
      "perigee_km": 315.64979107633644,
      "latitude_deg": 5.371169830476182e-05,
      "longitude_deg": 88.45029621563549,
      "height_km": 316.58547067459966,
      "semi_major_axis_km": 6694.363175745768,
      "eccentricity": 8.61e-05,
      "inclination_deg": 53.1596,
      "raan_deg": 195.2121,
      "arg_perigee_deg": 347.114,
      "mean_anomaly_deg": 12.9863,
      "mean_motion_rev_day": 15.85035004
    }
  ]
}